{
    "links": {
        "self": "http://www.neowsapp.com/rest/v1/neo/3771479?api_key=iIulBulltgU6a56xZRHN4H3l9WmuAYTsLGpBGhQ2"
    },
    "id": "3771479",
    "neo_reference_id": "3771479",
    "name": "(2017 EP22)",
    "designation": "2017 EP22",
    "nasa_jpl_url": "http://ssd.jpl.nasa.gov/sbdb.cgi?sstr=3771479",
    "absolute_magnitude_h": 22.4,
    "estimated_diameter": {
        "kilometers": {
            "estimated_diameter_min": 0.0880146521,
            "estimated_diameter_max": 0.1968067451
        },
        "meters": {
            "estimated_diameter_min": 88.0146520901,
            "estimated_diameter_max": 196.8067450894
        },
        "miles": {
            "estimated_diameter_min": 0.0546897524,
            "estimated_diameter_max": 0.122290004
        },
        "feet": {
            "estimated_diameter_min": 288.7619911632,
            "estimated_diameter_max": 645.6914415591
        }
    },
    "is_potentially_hazardous_asteroid": false,
    "close_approach_data": [
        {
            "close_approach_date": "2017-03-05",
            "close_approach_date_full": "2017-Mar-05 10:13",
            "epoch_date_close_approach": 1488708780000,
            "relative_velocity": {
                "kilometers_per_second": "32.8208935194",
                "kilometers_per_hour": "118155.2166697392",
                "miles_per_hour": "73417.0567134832"
            },
            "miss_distance": {
                "astronomical": "0.1151809948",
                "lunar": "44.8054069772",
                "kilometers": "17230831.486561076",
                "miles": "10706742.2075158088"
            },
            "orbiting_body": "Earth"
        }
    ],
    "orbital_data": {
        "orbit_id": "3",
        "orbit_determination_date": "2017-04-06 08:19:32",
        "first_observation_date": "2017-03-10",
        "last_observation_date": "2017-03-22",
        "data_arc_in_days": 12,
        "observations_used": 45,
        "orbit_uncertainty": "8",
        "minimum_orbit_intersection": ".105273",
        "jupiter_tisserand_invariant": "3.141",
        "epoch_osculation": "2457826.5",
        "eccentricity": ".9070280008516637",
        "semi_major_axis": "1.971560833049808",
        "inclination": "14.74733653117217",
        "ascending_node_longitude": "10.42355827655019",
        "orbital_period": "1011.145607777697",
        "perihelion_distance": ".1832999520912",
        "perihelion_argument": "19.76051579044874",
        "aphelion_distance": "3.759821714008416",
        "perihelion_time": "2457779.142474742305",
        "mean_anomaly": "16.8607853919674",
        "mean_motion": ".3560318090993942",
        "equinox": "J2000",
        "orbit_class": {
            "orbit_class_type": "APO",
            "orbit_class_description": "Near-Earth asteroid orbits which cross the Earth’s orbit similar to that of 1862 Apollo",
            "orbit_class_range": "a (semi-major axis) > 1.0 AU; q (perihelion) < 1.017 AU"
        }
    },
    "is_sentry_object": false
}